BEIDOU-2 M4 (C12)       
1 38251U 12018B   26085.96638076 -.00000033  00000+0  00000+0 0  9992
2 38251  55.7282 306.8676 0011786 286.4147  73.4963  1.86229475 94415
